[{"OBJECT_NAME":"IRIDIUM 33 DEB","OBJECT_ID":"1997-051GC","EPOCH":"2026-03-05T05:40:25.296096","MEAN_MOTION":14.43373555,"ECCENTRICITY":0.00294008,"INCLINATION":86.3483,"RA_OF_ASC_NODE":336.8757,"ARG_OF_PERICENTER":214.7933,"MEAN_ANOMALY":301.5186,"EPHEMERIS_TYPE":0,"CLASSIFICATION_TYPE":"U","NORAD_CAT_ID":34487,"ELEMENT_SET_NO":999,"REV_AT_EPOCH":89438,"BSTAR":0.00026517544,"MEAN_MOTION_DOT":9.19e-6,"MEAN_MOTION_DDOT":0},{"OBJECT_NAME":"IRIDIUM 33 DEB","OBJECT_ID":"1997-051GD","EPOCH":"2026-02-22T01:06:52.109280","MEAN_MOTION":15.78089963,"ECCENTRICITY":0.00047702,"INCLINATION":86.3081,"RA_OF_ASC_NODE":269.542,"ARG_OF_PERICENTER":70.8002,"MEAN_ANOMALY":289.3788,"EPHEMERIS_TYPE":0,"CLASSIFICATION_TYPE":"U","NORAD_CAT_ID":34488,"ELEMENT_SET_NO":999,"REV_AT_EPOCH":90341,"BSTAR":0.0064727089,"MEAN_MOTION_DOT":0.01238203,"MEAN_MOTION_DDOT":0},{"OBJECT_NAME":"IRIDIUM 33 DEB","OBJECT_ID":"1997-051GH","EPOCH":"2026-03-04T14:45:20.413440","MEAN_MOTION":14.27635689,"ECCENTRICITY":0.0186682,"INCLINATION":86.4704,"RA_OF_ASC_NODE":301.492,"ARG_OF_PERICENTER":335.9827,"MEAN_ANOMALY":51.1154,"EPHEMERIS_TYPE":0,"CLASSIFICATION_TYPE":"U","NORAD_CAT_ID":34492,"ELEMENT_SET_NO":999,"REV_AT_EPOCH":86226,"BSTAR":0.0054593,"MEAN_MOTION_DOT":0.00016229,"MEAN_MOTION_DDOT":0},{"OBJECT_NAME":"IRIDIUM 33 DEB","OBJECT_ID":"1997-051GN","EPOCH":"2026-03-05T03:22:55.083648","MEAN_MOTION":14.27761609,"ECCENTRICITY":0.00820463,"INCLINATION":86.2808,"RA_OF_ASC_NODE":17.1813,"ARG_OF_PERICENTER":72.9678,"MEAN_ANOMALY":308.7481,"EPHEMERIS_TYPE":0,"CLASSIFICATION_TYPE":"U","NORAD_CAT_ID":34497,"ELEMENT_SET_NO":999,"REV_AT_EPOCH":88059,"BSTAR":0.00098078627,"MEAN_MOTION_DOT":2.529e-5,"MEAN_MOTION_DDOT":0},{"OBJECT_NAME":"IRIDIUM 33 DEB","OBJECT_ID":"1997-051GZ","EPOCH":"2026-03-04T22:53:38.332032","MEAN_MOTION":14.39090614,"ECCENTRICITY":0.00617523,"INCLINATION":86.3655,"RA_OF_ASC_NODE":67.7455,"ARG_OF_PERICENTER":263.65,"MEAN_ANOMALY":95.7663,"EPHEMERIS_TYPE":0,"CLASSIFICATION_TYPE":"U","NORAD_CAT_ID":34508,"ELEMENT_SET_NO":999,"REV_AT_EPOCH":88491,"BSTAR":0.0014143594,"MEAN_MOTION_DOT":4.488e-5,"MEAN_MOTION_DDOT":0},{"OBJECT_NAME":"IRIDIUM 33 DEB","OBJECT_ID":"1997-051HN","EPOCH":"2026-03-05T05:14:04.252992","MEAN_MOTION":14.64586755,"ECCENTRICITY":0.00048816,"INCLINATION":86.3836,"RA_OF_ASC_NODE":354.2083,"ARG_OF_PERICENTER":19.5064,"MEAN_ANOMALY":340.6335,"EPHEMERIS_TYPE":0,"CLASSIFICATION_TYPE":"U","NORAD_CAT_ID":34521,"ELEMENT_SET_NO":999,"REV_AT_EPOCH":89679,"BSTAR":0.0017973816,"MEAN_MOTION_DOT":9.567e-5,"MEAN_MOTION_DDOT":0},{"OBJECT_NAME":"IRIDIUM 33 DEB","OBJECT_ID":"1997-051HS","EPOCH":"2026-03-05T07:09:40.439808","MEAN_MOTION":14.43159737,"ECCENTRICITY":0.00046631,"INCLINATION":86.3769,"RA_OF_ASC_NODE":11.5932,"ARG_OF_PERICENTER":149.9676,"MEAN_ANOMALY":12.5702,"EPHEMERIS_TYPE":0,"CLASSIFICATION_TYPE":"U","NORAD_CAT_ID":34525,"ELEMENT_SET_NO":999,"REV_AT_EPOCH":89278,"BSTAR":0.00054836642,"MEAN_MOTION_DOT":1.861e-5,"MEAN_MOTION_DDOT":0},{"OBJECT_NAME":"IRIDIUM 33 DEB","OBJECT_ID":"1997-051HW","EPOCH":"2026-03-05T06:48:25.010784","MEAN_MOTION":14.40731392,"ECCENTRICITY":0.00032348,"INCLINATION":86.3692,"RA_OF_ASC_NODE":0.2249,"ARG_OF_PERICENTER":310.4858,"MEAN_ANOMALY":49.6059,"EPHEMERIS_TYPE":0,"CLASSIFICATION_TYPE":"U","NORAD_CAT_ID":34529,"ELEMENT_SET_NO":999,"REV_AT_EPOCH":89330,"BSTAR":0.00028518276,"MEAN_MOTION_DOT":9.31e-6,"MEAN_MOTION_DDOT":0},{"OBJECT_NAME":"IRIDIUM 33 DEB","OBJECT_ID":"1997-051JF","EPOCH":"2026-03-05T05:07:30.663840","MEAN_MOTION":14.43250851,"ECCENTRICITY":0.0036535,"INCLINATION":86.2798,"RA_OF_ASC_NODE":329.4341,"ARG_OF_PERICENTER":53.1181,"MEAN_ANOMALY":99.4793,"EPHEMERIS_TYPE":0,"CLASSIFICATION_TYPE":"U","NORAD_CAT_ID":34538,"ELEMENT_SET_NO":999,"REV_AT_EPOCH":88945,"BSTAR":0.0010641333,"MEAN_MOTION_DOT":3.628e-5,"MEAN_MOTION_DDOT":0},{"OBJECT_NAME":"IRIDIUM 33 DEB","OBJECT_ID":"1997-051JH","EPOCH":"2026-03-05T00:47:05.061408","MEAN_MOTION":14.77297554,"ECCENTRICITY":0.00144462,"INCLINATION":86.3053,"RA_OF_ASC_NODE":269.9177,"ARG_OF_PERICENTER":241.2226,"MEAN_ANOMALY":270.7202,"EPHEMERIS_TYPE":0,"CLASSIFICATION_TYPE":"U","NORAD_CAT_ID":34540,"ELEMENT_SET_NO":999,"REV_AT_EPOCH":90235,"BSTAR":0.0015631073,"MEAN_MOTION_DOT":0.0001114,"MEAN_MOTION_DDOT":0},{"OBJECT_NAME":"IRIDIUM 33 DEB","OBJECT_ID":"1997-051JZ","EPOCH":"2026-03-04T12:14:17.151072","MEAN_MOTION":14.13342933,"ECCENTRICITY":0.01759418,"INCLINATION":86.3889,"RA_OF_ASC_NODE":248.883,"ARG_OF_PERICENTER":39.5876,"MEAN_ANOMALY":321.8002,"EPHEMERIS_TYPE":0,"CLASSIFICATION_TYPE":"U","NORAD_CAT_ID":34648,"ELEMENT_SET_NO":999,"REV_AT_EPOCH":86115,"BSTAR":0.0048803556,"MEAN_MOTION_DOT":0.00010638,"MEAN_MOTION_DDOT":0},{"OBJECT_NAME":"IRIDIUM 33 DEB","OBJECT_ID":"1997-051KC","EPOCH":"2026-03-04T12:51:04.823136","MEAN_MOTION":14.27201856,"ECCENTRICITY":0.0131921,"INCLINATION":86.2781,"RA_OF_ASC_NODE":105.7221,"ARG_OF_PERICENTER":300.5078,"MEAN_ANOMALY":58.3142,"EPHEMERIS_TYPE":0,"CLASSIFICATION_TYPE":"U","NORAD_CAT_ID":34651,"ELEMENT_SET_NO":999,"REV_AT_EPOCH":87062,"BSTAR":0.0036418,"MEAN_MOTION_DOT":9.776e-5,"MEAN_MOTION_DDOT":0},{"OBJECT_NAME":"IRIDIUM 33 DEB","OBJECT_ID":"1997-051KD","EPOCH":"2026-03-03T16:36:26.735040","MEAN_MOTION":14.62914267,"ECCENTRICITY":0.00290077,"INCLINATION":86.3295,"RA_OF_ASC_NODE":303.9474,"ARG_OF_PERICENTER":22.9599,"MEAN_ANOMALY":32.4891,"EPHEMERIS_TYPE":0,"CLASSIFICATION_TYPE":"U","NORAD_CAT_ID":34652,"ELEMENT_SET_NO":999,"REV_AT_EPOCH":89667,"BSTAR":0.00092810952,"MEAN_MOTION_DOT":4.797e-5,"MEAN_MOTION_DDOT":0},{"OBJECT_NAME":"IRIDIUM 33 DEB","OBJECT_ID":"1997-051KM","EPOCH":"2026-03-05T07:23:01.219200","MEAN_MOTION":14.55442423,"ECCENTRICITY":0.00125476,"INCLINATION":86.3822,"RA_OF_ASC_NODE":1.0971,"ARG_OF_PERICENTER":94.2202,"MEAN_ANOMALY":59.7281,"EPHEMERIS_TYPE":0,"CLASSIFICATION_TYPE":"U","NORAD_CAT_ID":34690,"ELEMENT_SET_NO":999,"REV_AT_EPOCH":89295,"BSTAR":0.00057516705,"MEAN_MOTION_DOT":2.523e-5,"MEAN_MOTION_DDOT":0},{"OBJECT_NAME":"IRIDIUM 33 DEB","OBJECT_ID":"1997-051KQ","EPOCH":"2026-02-24T23:46:27.128064","MEAN_MOTION":15.78525,"ECCENTRICITY":0.00039393,"INCLINATION":86.2833,"RA_OF_ASC_NODE":265.9163,"ARG_OF_PERICENTER":44.5223,"MEAN_ANOMALY":315.6368,"EPHEMERIS_TYPE":0,"CLASSIFICATION_TYPE":"U","NORAD_CAT_ID":34693,"ELEMENT_SET_NO":999,"REV_AT_EPOCH":90061,"BSTAR":0.0068576941,"MEAN_MOTION_DOT":0.01322234,"MEAN_MOTION_DDOT":0},{"OBJECT_NAME":"IRIDIUM 33 DEB","OBJECT_ID":"1997-051KT","EPOCH":"2026-03-05T05:40:49.418976","MEAN_MOTION":14.7199003,"ECCENTRICITY":0.00574664,"INCLINATION":86.1828,"RA_OF_ASC_NODE":348.9459,"ARG_OF_PERICENTER":248.0668,"MEAN_ANOMALY":269.7308,"EPHEMERIS_TYPE":0,"CLASSIFICATION_TYPE":"U","NORAD_CAT_ID":34696,"ELEMENT_SET_NO":999,"REV_AT_EPOCH":87883,"BSTAR":0.0065766667,"MEAN_MOTION_DOT":0.00042575,"MEAN_MOTION_DDOT":0}]
